QIANFAN-145             
1 69104U 26108A   26201.57103594 -.01894355  00000+0 -28629+1 0  9995
2 69104  89.0101  18.7095 0019270   9.3271 350.8237 13.56997548  8948
QIANFAN-146             
1 69105U 26108B   26201.73710248 -.01827868  00000+0 -19749+1 0  9992
2 69105  89.0092  18.5774 0020398   3.8254 356.3064 13.77479452  9035
QIANFAN-147             
1 69106U 26108C   26201.95349020  .00000021  00000+0  12295-4 0  9997
2 69106  89.0112  18.6751 0018677   6.3123 353.8263 13.57849329  8983
QIANFAN-148             
1 69107U 26108D   26201.64196292 -.02038467  00000+0 -31351+1 0  9994
2 69107  89.0101  18.6996 0022259  21.3382 338.8695 13.55479639  8947
QIANFAN-149             
1 69108U 26108E   26201.54570299 -.02009867  00000+0 -32549+1 0  9999
2 69108  89.0100  18.7238 0023617  18.4671 341.7332 13.52134537  8936
QIANFAN-150             
1 69109U 26108F   26201.61596563 -.02010587  00000+0 -30449+1 0  9998
2 69109  89.0099  18.6814 0021038  12.4543 347.7127 13.56408091  8953
QIANFAN-151             
1 69110U 26108G   26201.66453677 -.01926339  00000+0 -30071+1 0  9994
2 69110  89.0103  18.6892 0023691  19.1598 341.0441 13.54988584  8952
QIANFAN-152             
1 69111U 26108H   26201.63814744 -.01909751  00000+0 -29942+1 0  9992
2 69111  89.0102  18.6828 0020401  25.0602 335.1537 13.54702146  8968
QIANFAN-153             
1 69112U 26108J   26201.63217841 -.01807049  00000+0 -24950+1 0  9999
2 69112  89.0099  18.6800 0024525   6.5100 353.6371 13.62402501  8953
QIANFAN-154             
1 69113U 26108K   26201.55524791 -.01942226  00000+0 -33079+1 0  9995
2 69113  89.0103  18.7087 0019415   5.8856 354.2519 13.49509735  8942
QIANFAN-155             
1 69114U 26108L   26201.40527119 -.01927328  00000+0 -29175+1 0  9995
2 69114  89.0104  18.7070 0021391  15.2444 344.9351 13.56956236  8928
QIANFAN-156             
1 69115U 26108M   26201.62795532 -.01934818  00000+0 -28745+1 0  9990
2 69115  89.0110  18.6730 0021046   5.9341 354.2060 13.58157622  8977
QIANFAN-157             
1 69116U 26108N   26201.73716298 -.02005669  00000+0 -25974+1 0  9990
2 69116  89.0097  18.6082 0023283  24.5233 335.7029 13.66137648  9014
QIANFAN-158             
1 69117U 26108P   26201.77791760 -.01690709  00000+0 -25202+1 0  9990
2 69117  89.0102  18.6313 0019521  14.3760 345.7947 13.57375713  9007
QIANFAN-159             
1 69118U 26108Q   26201.77428008 -.01878603  00000+0 -29412+1 0  9991
2 69118  89.0092  18.6450 0022009  23.1854 337.0287 13.54703036  8993
QIANFAN-160             
1 69119U 26108R   26201.74752007 -.01897313  00000+0 -31628+1 0  9999
2 69119  89.0115  18.6652 0022963  14.4411 345.7392 13.50745974  8980
