{"fetched_at":"2026-07-21T07:06:31.784Z","source":"https://celestrak.org/NORAD/elements/gp.php?GROUP=qianfan&FORMAT=JSON","constellation":"qianfan","records":[{"OBJECT_NAME":"QIANFAN-145","OBJECT_ID":"2026-108A","EPOCH":"2026-07-20T13:42:17.505216","CLASSIFICATION_TYPE":"U","MEAN_MOTION":13.56997548,"ECCENTRICITY":0.00192706,"INCLINATION":89.0101,"RA_OF_ASC_NODE":18.7095,"ARG_OF_PERICENTER":9.3271,"MEAN_ANOMALY":350.8237,"EPHEMERIS_TYPE":0,"NORAD_CAT_ID":69104,"ELEMENT_SET_NO":999,"REV_AT_EPOCH":894,"BSTAR":-2.862927,"MEAN_MOTION_DOT":-0.01894355,"MEAN_MOTION_DDOT":0},{"OBJECT_NAME":"QIANFAN-146","OBJECT_ID":"2026-108B","EPOCH":"2026-07-20T17:41:25.654272","CLASSIFICATION_TYPE":"U","MEAN_MOTION":13.77479452,"ECCENTRICITY":0.00203985,"INCLINATION":89.0092,"RA_OF_ASC_NODE":18.5774,"ARG_OF_PERICENTER":3.8254,"MEAN_ANOMALY":356.3064,"EPHEMERIS_TYPE":0,"NORAD_CAT_ID":69105,"ELEMENT_SET_NO":999,"REV_AT_EPOCH":903,"BSTAR":-1.9749249,"MEAN_MOTION_DOT":-0.01827868,"MEAN_MOTION_DDOT":0},{"OBJECT_NAME":"QIANFAN-147","OBJECT_ID":"2026-108C","EPOCH":"2026-07-20T22:53:01.553280","CLASSIFICATION_TYPE":"U","MEAN_MOTION":13.57849329,"ECCENTRICITY":0.00186771,"INCLINATION":89.0112,"RA_OF_ASC_NODE":18.6751,"ARG_OF_PERICENTER":6.3123,"MEAN_ANOMALY":353.8263,"EPHEMERIS_TYPE":0,"NORAD_CAT_ID":69106,"ELEMENT_SET_NO":999,"REV_AT_EPOCH":898,"BSTAR":0.000012294643,"MEAN_MOTION_DOT":2.1e-7,"MEAN_MOTION_DDOT":0},{"OBJECT_NAME":"QIANFAN-148","OBJECT_ID":"2026-108D","EPOCH":"2026-07-20T15:24:25.596288","CLASSIFICATION_TYPE":"U","MEAN_MOTION":13.55479639,"ECCENTRICITY":0.00222599,"INCLINATION":89.0101,"RA_OF_ASC_NODE":18.6996,"ARG_OF_PERICENTER":21.3382,"MEAN_ANOMALY":338.8695,"EPHEMERIS_TYPE":0,"NORAD_CAT_ID":69107,"ELEMENT_SET_NO":999,"REV_AT_EPOCH":894,"BSTAR":-3.1351378,"MEAN_MOTION_DOT":-0.02038467,"MEAN_MOTION_DDOT":0},{"OBJECT_NAME":"QIANFAN-149","OBJECT_ID":"2026-108E","EPOCH":"2026-07-20T13:05:48.738336","CLASSIFICATION_TYPE":"U","MEAN_MOTION":13.52134537,"ECCENTRICITY":0.00236174,"INCLINATION":89.01,"RA_OF_ASC_NODE":18.7238,"ARG_OF_PERICENTER":18.4671,"MEAN_ANOMALY":341.7332,"EPHEMERIS_TYPE":0,"NORAD_CAT_ID":69108,"ELEMENT_SET_NO":999,"REV_AT_EPOCH":893,"BSTAR":-3.2548793,"MEAN_MOTION_DOT":-0.02009867,"MEAN_MOTION_DDOT":0},{"OBJECT_NAME":"QIANFAN-150","OBJECT_ID":"2026-108F","EPOCH":"2026-07-20T14:46:59.430432","CLASSIFICATION_TYPE":"U","MEAN_MOTION":13.56408091,"ECCENTRICITY":0.00210382,"INCLINATION":89.0099,"RA_OF_ASC_NODE":18.6814,"ARG_OF_PERICENTER":12.4543,"MEAN_ANOMALY":347.7127,"EPHEMERIS_TYPE":0,"NORAD_CAT_ID":69109,"ELEMENT_SET_NO":999,"REV_AT_EPOCH":895,"BSTAR":-3.0449082,"MEAN_MOTION_DOT":-0.02010587,"MEAN_MOTION_DDOT":0},{"OBJECT_NAME":"QIANFAN-151","OBJECT_ID":"2026-108G","EPOCH":"2026-07-20T15:56:55.976928","CLASSIFICATION_TYPE":"U","MEAN_MOTION":13.54988584,"ECCENTRICITY":0.00236913,"INCLINATION":89.0103,"RA_OF_ASC_NODE":18.6892,"ARG_OF_PERICENTER":19.1598,"MEAN_ANOMALY":341.0441,"EPHEMERIS_TYPE":0,"NORAD_CAT_ID":69110,"ELEMENT_SET_NO":999,"REV_AT_EPOCH":895,"BSTAR":-3.0071011,"MEAN_MOTION_DOT":-0.01926339,"MEAN_MOTION_DDOT":0},{"OBJECT_NAME":"QIANFAN-152","OBJECT_ID":"2026-108H","EPOCH":"2026-07-20T15:18:55.938816","CLASSIFICATION_TYPE":"U","MEAN_MOTION":13.54702146,"ECCENTRICITY":0.00204015,"INCLINATION":89.0102,"RA_OF_ASC_NODE":18.6828,"ARG_OF_PERICENTER":25.0602,"MEAN_ANOMALY":335.1537,"EPHEMERIS_TYPE":0,"NORAD_CAT_ID":69111,"ELEMENT_SET_NO":999,"REV_AT_EPOCH":896,"BSTAR":-2.994218,"MEAN_MOTION_DOT":-0.01909751,"MEAN_MOTION_DDOT":0},{"OBJECT_NAME":"QIANFAN-153","OBJECT_ID":"2026-108J","EPOCH":"2026-07-20T15:10:20.214624","CLASSIFICATION_TYPE":"U","MEAN_MOTION":13.62402501,"ECCENTRICITY":0.00245257,"INCLINATION":89.0099,"RA_OF_ASC_NODE":18.68,"ARG_OF_PERICENTER":6.51,"MEAN_ANOMALY":353.6371,"EPHEMERIS_TYPE":0,"NORAD_CAT_ID":69112,"ELEMENT_SET_NO":999,"REV_AT_EPOCH":895,"BSTAR":-2.4949807,"MEAN_MOTION_DOT":-0.01807049,"MEAN_MOTION_DDOT":0},{"OBJECT_NAME":"QIANFAN-154","OBJECT_ID":"2026-108K","EPOCH":"2026-07-20T13:19:33.419424","CLASSIFICATION_TYPE":"U","MEAN_MOTION":13.49509735,"ECCENTRICITY":0.00194156,"INCLINATION":89.0103,"RA_OF_ASC_NODE":18.7087,"ARG_OF_PERICENTER":5.8856,"MEAN_ANOMALY":354.2519,"EPHEMERIS_TYPE":0,"NORAD_CAT_ID":69113,"ELEMENT_SET_NO":999,"REV_AT_EPOCH":894,"BSTAR":-3.3079026,"MEAN_MOTION_DOT":-0.01942226,"MEAN_MOTION_DDOT":0},{"OBJECT_NAME":"QIANFAN-155","OBJECT_ID":"2026-108L","EPOCH":"2026-07-20T09:43:35.430816","CLASSIFICATION_TYPE":"U","MEAN_MOTION":13.56956236,"ECCENTRICITY":0.00213912,"INCLINATION":89.0104,"RA_OF_ASC_NODE":18.707,"ARG_OF_PERICENTER":15.2444,"MEAN_ANOMALY":344.9351,"EPHEMERIS_TYPE":0,"NORAD_CAT_ID":69114,"ELEMENT_SET_NO":999,"REV_AT_EPOCH":892,"BSTAR":-2.9175135,"MEAN_MOTION_DOT":-0.01927328,"MEAN_MOTION_DDOT":0},{"OBJECT_NAME":"QIANFAN-156","OBJECT_ID":"2026-108M","EPOCH":"2026-07-20T15:04:15.339648","CLASSIFICATION_TYPE":"U","MEAN_MOTION":13.58157622,"ECCENTRICITY":0.00210463,"INCLINATION":89.011,"RA_OF_ASC_NODE":18.673,"ARG_OF_PERICENTER":5.9341,"MEAN_ANOMALY":354.206,"EPHEMERIS_TYPE":0,"NORAD_CAT_ID":69115,"ELEMENT_SET_NO":999,"REV_AT_EPOCH":897,"BSTAR":-2.8744756,"MEAN_MOTION_DOT":-0.01934818,"MEAN_MOTION_DDOT":0},{"OBJECT_NAME":"QIANFAN-157","OBJECT_ID":"2026-108N","EPOCH":"2026-07-20T17:41:30.881472","CLASSIFICATION_TYPE":"U","MEAN_MOTION":13.66137648,"ECCENTRICITY":0.0023283,"INCLINATION":89.0097,"RA_OF_ASC_NODE":18.6082,"ARG_OF_PERICENTER":24.5233,"MEAN_ANOMALY":335.7029,"EPHEMERIS_TYPE":0,"NORAD_CAT_ID":69116,"ELEMENT_SET_NO":999,"REV_AT_EPOCH":901,"BSTAR":-2.5973935,"MEAN_MOTION_DOT":-0.02005669,"MEAN_MOTION_DDOT":0},{"OBJECT_NAME":"QIANFAN-158","OBJECT_ID":"2026-108P","EPOCH":"2026-07-20T18:40:12.080640","CLASSIFICATION_TYPE":"U","MEAN_MOTION":13.57375713,"ECCENTRICITY":0.00195211,"INCLINATION":89.0102,"RA_OF_ASC_NODE":18.6313,"ARG_OF_PERICENTER":14.376,"MEAN_ANOMALY":345.7947,"EPHEMERIS_TYPE":0,"NORAD_CAT_ID":69117,"ELEMENT_SET_NO":999,"REV_AT_EPOCH":900,"BSTAR":-2.5202022,"MEAN_MOTION_DOT":-0.01690709,"MEAN_MOTION_DDOT":0},{"OBJECT_NAME":"QIANFAN-159","OBJECT_ID":"2026-108Q","EPOCH":"2026-07-20T18:34:57.798912","CLASSIFICATION_TYPE":"U","MEAN_MOTION":13.54703036,"ECCENTRICITY":0.0022009,"INCLINATION":89.0092,"RA_OF_ASC_NODE":18.645,"ARG_OF_PERICENTER":23.1854,"MEAN_ANOMALY":337.0287,"EPHEMERIS_TYPE":0,"NORAD_CAT_ID":69118,"ELEMENT_SET_NO":999,"REV_AT_EPOCH":899,"BSTAR":-2.9412304,"MEAN_MOTION_DOT":-0.01878603,"MEAN_MOTION_DDOT":0},{"OBJECT_NAME":"QIANFAN-160","OBJECT_ID":"2026-108R","EPOCH":"2026-07-20T17:56:25.734048","CLASSIFICATION_TYPE":"U","MEAN_MOTION":13.50745974,"ECCENTRICITY":0.00229637,"INCLINATION":89.0115,"RA_OF_ASC_NODE":18.6652,"ARG_OF_PERICENTER":14.4411,"MEAN_ANOMALY":345.7392,"EPHEMERIS_TYPE":0,"NORAD_CAT_ID":69119,"ELEMENT_SET_NO":999,"REV_AT_EPOCH":898,"BSTAR":-3.1628281,"MEAN_MOTION_DOT":-0.01897313,"MEAN_MOTION_DDOT":0}]}
